[{"OBJECT_NAME":"ONEWEB-0632","OBJECT_ID":"2023-043AD","EPOCH":"2026-03-09T14:39:03.369024","MEAN_MOTION":13.15547691,"ECCENTRICITY":0.0001427,"INCLINATION":87.894,"RA_OF_ASC_NODE":279.0973,"ARG_OF_PERICENTER":93.7391,"MEAN_ANOMALY":266.3903,"EPHEMERIS_TYPE":0,"CLASSIFICATION_TYPE":"U","NORAD_CAT_ID":56073,"ELEMENT_SET_NO":999,"REV_AT_EPOCH":14333,"BSTAR":-0.00044453,"MEAN_MOTION_DOT":-1.55e-6,"MEAN_MOTION_DDOT":0},{"OBJECT_NAME":"CZ-4C DEB","OBJECT_ID":"2015-040C","EPOCH":"2026-03-09T03:23:21.887520","MEAN_MOTION":13.1056365,"ECCENTRICITY":0.01506715,"INCLINATION":100.3116,"RA_OF_ASC_NODE":42.347,"ARG_OF_PERICENTER":180.9058,"MEAN_ANOMALY":179.18,"EPHEMERIS_TYPE":0,"CLASSIFICATION_TYPE":"U","NORAD_CAT_ID":43424,"ELEMENT_SET_NO":999,"REV_AT_EPOCH":49912,"BSTAR":0.00056122844,"MEAN_MOTION_DOT":1.65e-6,"MEAN_MOTION_DDOT":0}]
